[{"OBJECT_NAME":"STARLINK-31457","OBJECT_ID":"2024-064S","EPOCH":"2026-03-09T06:58:39.895392","MEAN_MOTION":15.27578094,"ECCENTRICITY":0.00013934,"INCLINATION":43.0052,"RA_OF_ASC_NODE":51.5708,"ARG_OF_PERICENTER":275.0947,"MEAN_ANOMALY":84.9746,"EPHEMERIS_TYPE":0,"CLASSIFICATION_TYPE":"U","NORAD_CAT_ID":59414,"ELEMENT_SET_NO":999,"REV_AT_EPOCH":10924,"BSTAR":-1.7400657e-5,"MEAN_MOTION_DOT":-7.41e-6,"MEAN_MOTION_DDOT":0},{"OBJECT_NAME":"DMSP 5D-2 F13 DEB","OBJECT_ID":"1995-015HL","EPOCH":"2026-02-09T02:06:19.247328","MEAN_MOTION":15.12822218,"ECCENTRICITY":0.00117732,"INCLINATION":98.8603,"RA_OF_ASC_NODE":96.8879,"ARG_OF_PERICENTER":223.037,"MEAN_ANOMALY":136.9936,"EPHEMERIS_TYPE":0,"CLASSIFICATION_TYPE":"U","NORAD_CAT_ID":42294,"ELEMENT_SET_NO":999,"REV_AT_EPOCH":55633,"BSTAR":0.010466292,"MEAN_MOTION_DOT":0.00188804,"MEAN_MOTION_DDOT":0}]
